ONEWEB-0053             
1 45157U 20008AC  21159.17593236 -.00000532  00000-0 -15594-2 0  9994
2 45157  87.8878  41.0792 0001357  84.1661 275.9621 13.10374367 67599
ONEWEB-0054             
1 45158U 20008AD  21159.21179204  .00000351  00000-0  96930-3 0  9996
2 45158  87.8870  41.0768 0001971  83.0093 277.1259 13.10377047 67717
ONEWEB-0056             
1 45159U 20008AE  21159.19310595  .00000654  00000-0  18359-2 0  9998
2 45159  87.8875  41.0735 0001605  73.2555 286.8748 13.10374814 67860
ONEWEB-0057             
1 45160U 20008AF  21159.73382668  .00000723  00000-0  20359-2 0  9990
2 45160  87.8876  40.9361 0001389  79.5028 280.6256 13.10373927 68590
ONEWEB-0058             
1 45161U 20008AG  21159.18685670  .00000427  00000-0  11868-2 0  9995
2 45161  87.8882  41.0649 0001635  90.5629 269.5685 13.10375710 68104
ONEWEB-0059             
1 45162U 20008AH  21159.18373634  .00000251  00000-0  68316-3 0  9996
2 45162  87.8879  41.0720 0001713  86.7174 273.4150 13.10379967 68008
ONEWEB-0062             
1 45163U 20008AJ  21159.21024483  .00000457  00000-0  12736-2 0  9998
2 45163  87.8871  41.0620 0001570  69.7370 290.3926 13.10375656 67874
ONEWEB-0065             
1 45164U 20008AK  21159.18841116  .00000518  00000-0  14489-2 0  9990
2 45164  87.8792  41.0140 0001652  79.0378 281.0935 13.10375765 67561
STARLINK-1138           
1 45178U 20012A   21159.51032295  .00001066  00000-0  90441-4 0  9990
2 45178  53.0540 276.1479 0001268 117.9362 242.1755 15.06396449 73245
STARLINK-1143           
1 45179U 20012B   21159.51402437  .00000290  00000-0  38378-4 0  9999
2 45179  53.0554 276.1341 0001339 102.0788 258.0351 15.06393974 72657
STARLINK-1192           
1 45180U 20012C   21159.50294936  .00000630  00000-0  61151-4 0  9996
2 45180  53.0555 276.1824 0001362 116.6082 243.5046 15.06403793 72651
STARLINK-1200           
1 45181U 20012D   21159.43292165  .00000581  00000-0  57870-4 0  9999
2 45181  53.0541 276.4946 0001161 129.5567 230.5525 15.06393019 73291
STARLINK-1201           
1 45182U 20012E   21159.51953714  .00000768  00000-0  70460-4 0  9990
2 45182  53.0547 256.1087 0000877 114.5166 245.5915 15.06402520 73434
STARLINK-1202           
1 45183U 20012F   21159.46978420 -.00001068  00000-0 -52856-4 0  9991
2 45183  53.0545 276.3275 0001334 100.6062 259.5077 15.06395269 73307
STARLINK-1205           
1 45184U 20012G   21159.52691942  .00001564  00000-0  12389-3 0  9995
2 45184  53.0555 256.0726 0001129 125.5173 234.5922 15.06394513 72623
STARLINK-1216           
1 45185U 20012H   21159.46241025  .00000632  00000-0  61296-4 0  9999
2 45185  53.0544 276.3635 0001317 114.4668 245.6458 15.06395751 73242
STARLINK-1224           
1 45186U 20012J   21159.47715540  .00000627  00000-0  61001-4 0  9997
2 45186  53.0546 276.2954 0001328 121.6230 238.4888 15.06402129 73240
STARLINK-1225           
1 45187U 20012K   21159.48083392  .00000516  00000-0  53556-4 0  9995
2 45187  53.0558 276.2816 0001214 120.6161 239.4947 15.06396612 73298
STARLINK-1228           
1 45188U 20012L   21159.51032757  .00000535  00000-0  54815-4 0  9999
2 45188  53.0563 236.1456 0001038 141.7802 218.3260 15.06390572 73811
STARLINK-1230           
1 45189U 20012M   21159.48452556  .00000962  00000-0  83464-4 0  9995
2 45189  53.0548 276.2624 0001029 119.8979 240.2112 15.06393013 70526
STARLINK-1234           
1 45190U 20012N   21159.56931300  .00000638  00000-0  61710-4 0  9995
2 45190  53.0541 235.8864 0000975 143.0487 217.0569 15.06401398 72896
STARLINK-1236           
1 45191U 20012P   21159.49189512  .00000800  00000-0  72597-4 0  9994
2 45191  53.0555 276.2292 0001133  93.1666 266.9453 15.06397187 70519
STARLINK-1237           
1 45192U 20012Q   21159.46609290  .00000720  00000-0  67208-4 0  9996
2 45192  53.0553 276.3430 0001114 109.2158 250.8952 15.06397251 73305
STARLINK-1239           
1 45193U 20012R   21159.32234444  .00000789  00000-0  71898-4 0  9992
2 45193  53.0542 276.9932 0001371 117.7239 242.3890 15.06394607 73226
