CREATION_DATE,OBJECT_NAME,OBJECT_ID,EPOCH,MEAN_MOTION,ECCENTRICITY,INCLINATION,RA_OF_ASC_NODE,ARG_OF_PERICENTER,MEAN_ANOMALY,EPHEMERIS_TYPE,CLASSIFICATION_TYPE,NORAD_CAT_ID,ELEMENT_SET_NO,REV_AT_EPOCH,BSTAR,MEAN_MOTION_DOT,MEAN_MOTION_DDOT,SEMIMAJOR_AXIS,PERIOD,APOAPSIS,PERIAPSIS,OBJECT_TYPE,RCS_SIZE,COUNTRY_CODE,LAUNCH_DATE
2021-06-08T18:36:59,ONEWEB-0053,2020-008AC,2021-06-08T04:13:20.555904,13.10374367,0.0001357,87.8878,41.0792,84.1661,275.9621,0,U,45157,999,6759,-0.0015594,-0.00000532,0,7599.848,109.892,1222.744,1220.682,PAYLOAD,LARGE,UK,2/6/2020
2021-06-08T18:36:59,ONEWEB-0054,2020-008AD,2021-06-08T05:04:58.832256,13.10377047,0.0001971,87.887,41.0768,83.0093,277.1259,0,U,45158,999,6771,0.0009693,0.00000351,0,7599.838,109.892,1223.201,1220.205,PAYLOAD,LARGE,UK,2/6/2020
2021-06-08T18:36:59,ONEWEB-0056,2020-008AE,2021-06-08T04:38:04.354080,13.10374814,0.0001605,87.8875,41.0735,73.2555,286.8748,0,U,45159,999,6786,0.0018359,0.00000654,0,7599.846,109.892,1222.931,1220.492,PAYLOAD,LARGE,UK,2/6/2020
2021-06-08T22:56:10,ONEWEB-0057,2020-008AF,2021-06-08T17:36:42.625152,13.10373927,0.0001389,87.8876,40.9361,79.5028,280.6256,0,U,45160,999,6859,0.0020359,0.00000723,0,7599.85,109.892,1222.77,1220.659,PAYLOAD,LARGE,UK,2/6/2020
2021-06-08T18:36:59,ONEWEB-0058,2020-008AG,2021-06-08T04:29:04.418880,13.1037571,0.0001635,87.8882,41.0649,90.5629,269.5685,0,U,45161,999,6810,0.0011868,0.00000427,0,7599.843,109.892,1222.951,1220.465,PAYLOAD,LARGE,UK,2/6/2020
2021-06-08T18:36:59,ONEWEB-0059,2020-008AH,2021-06-08T04:24:34.819776,13.10379967,0.0001713,87.8879,41.072,86.7174,273.415,0,U,45162,999,6800,0.00068316,0.00000251,0,7599.827,109.892,1222.993,1220.39,PAYLOAD,LARGE,UK,2/6/2020
2021-06-08T18:36:59,ONEWEB-0062,2020-008AJ,2021-06-08T05:02:45.153312,13.10375656,0.000157,87.8871,41.062,69.737,290.3926,0,U,45163,999,6787,0.0012736,0.00000457,0,7599.843,109.892,1222.901,1220.515,PAYLOAD,LARGE,UK,2/6/2020
2021-06-08T18:36:59,ONEWEB-0065,2020-008AK,2021-06-08T04:31:18.724224,13.10375765,0.0001652,87.8792,41.014,79.0378,281.0935,0,U,45164,999,6756,0.0014489,0.00000518,0,7599.843,109.892,1222.963,1220.452,PAYLOAD,LARGE,UK,2/6/2020
2021-06-08T18:36:59,STARLINK-1138,2020-012A,2021-06-08T12:14:51.902880,15.06396449,0.0001268,53.054,276.1479,117.9362,242.1755,0,U,45178,999,7324,0.000090441,0.00001066,0,6925.359,95.592,548.103,546.346,PAYLOAD,LARGE,US,2/17/2020
2021-06-08T14:46:10,STARLINK-1143,2020-012B,2021-06-08T12:20:11.705568,15.06393974,0.0001339,53.0554,276.1341,102.0788,258.0351,0,U,45179,999,7265,0.000038378,0.0000029,0,6925.367,95.593,548.159,546.305,PAYLOAD,LARGE,US,2/17/2020
2021-06-08T14:46:10,STARLINK-1192,2020-012C,2021-06-08T12:04:14.824704,15.06403793,0.0001362,53.0555,276.1824,116.6082,243.5046,0,U,45180,999,7265,0.000061151,0.0000063,0,6925.337,95.592,548.145,546.259,PAYLOAD,LARGE,US,2/17/2020
2021-06-08T18:36:59,STARLINK-1200,2020-012D,2021-06-08T10:23:24.430560,15.06393019,0.0001161,53.0541,276.4946,129.5567,230.5525,0,U,45181,999,7329,0.00005787,0.00000581,0,6925.37,95.593,548.039,546.431,PAYLOAD,LARGE,US,2/17/2020
2021-06-08T18:36:59,STARLINK-1201,2020-012E,2021-06-08T12:28:08.008896,15.0640252,0.0000877,53.0547,256.1087,114.5166,245.5915,0,U,45182,999,7343,0.00007046,0.00000768,0,6925.341,95.592,547.813,546.598,PAYLOAD,LARGE,US,2/17/2020
2021-06-08T18:36:59,STARLINK-1202,2020-012F,2021-06-08T11:16:29.354880,15.06395269,0.0001334,53.0545,276.3275,100.6062,259.5077,0,U,45183,999,7330,-0.000052856,-0.00001068,0,6925.363,95.592,548.152,546.304,PAYLOAD,LARGE,US,2/17/2020
2021-06-08T18:36:59,STARLINK-1205,2020-012G,2021-06-08T12:38:45.837888,15.06394513,0.0001129,53.0555,256.0726,125.5173,234.5922,0,U,45184,999,7262,0.00012389,0.00001564,0,6925.365,95.592,548.012,546.449,PAYLOAD,LARGE,US,2/17/2020
2021-06-08T18:36:59,STARLINK-1216,2020-012H,2021-06-08T11:05:52.245600,15.06395751,0.0001317,53.0544,276.3635,114.4668,245.6458,0,U,45185,999,7324,0.000061296,0.00000632,0,6925.362,95.592,548.139,546.315,PAYLOAD,LARGE,US,2/17/2020
2021-06-08T18:36:59,STARLINK-1224,2020-012J,2021-06-08T11:27:06.226560,15.06402129,0.0001328,53.0546,276.2954,121.623,238.4888,0,U,45186,999,7324,0.000061001,0.00000627,0,6925.342,95.592,548.127,546.287,PAYLOAD,LARGE,US,2/17/2020
2021-06-08T18:36:59,STARLINK-1225,2020-012K,2021-06-08T11:32:24.050688,15.06396612,0.0001214,53.0558,276.2816,120.6161,239.4947,0,U,45187,999,7329,0.000053556,0.00000516,0,6925.359,95.592,548.065,546.383,PAYLOAD,LARGE,US,2/17/2020
2021-06-08T18:36:59,STARLINK-1228,2020-012L,2021-06-08T12:14:52.302048,15.06390572,0.0001038,53.0563,236.1456,141.7802,218.326,0,U,45188,999,7381,0.000054815,0.00000535,0,6925.377,95.593,547.961,546.524,PAYLOAD,LARGE,US,2/17/2020
2021-06-08T18:36:59,STARLINK-1230,2020-012M,2021-06-08T11:37:43.008384,15.06393013,0.0001029,53.0548,276.2624,119.8979,240.2112,0,U,45189,999,7052,0.000083464,0.00000962,0,6925.37,95.593,547.948,546.522,PAYLOAD,LARGE,US,2/17/2020
2021-06-08T22:36:11,STARLINK-1234,2020-012N,2021-06-08T13:39:48.643200,15.06401398,0.0000975,53.0541,235.8864,143.0487,217.0569,0,U,45190,999,7289,0.00006171,0.00000638,0,6925.344,95.592,547.884,546.534,PAYLOAD,LARGE,US,2/17/2020
2021-06-08T18:36:59,STARLINK-1236,2020-012P,2021-06-08T11:48:19.738368,15.06397187,0.0001133,53.0555,276.2292,93.1666,266.9453,0,U,45191,999,7051,0.000072597,0.000008,0,6925.357,95.592,548.007,546.438,PAYLOAD,LARGE,US,2/17/2020
2021-06-08T18:36:59,STARLINK-1237,2020-012Q,2021-06-08T11:11:10.426560,15.06397251,0.0001114,53.0553,276.343,109.2158,250.8952,0,U,45192,999,7330,0.000067208,0.0000072,0,6925.357,95.592,547.993,546.45,PAYLOAD,LARGE,US,2/17/2020
2021-06-08T18:36:59,STARLINK-1239,2020-012R,2021-06-08T07:44:10.559616,15.06394607,0.0001371,53.0542,276.9932,117.7239,242.389,0,U,45193,999,7322,0.000071898,0.00000789,0,6925.365,95.592,548.18,546.281,PAYLOAD,LARGE,US,2/17/2020
